[{"OBJECT_NAME":"STARLINK-4545","OBJECT_ID":"2022-097AK","EPOCH":"2026-03-09T08:22:33.340800","MEAN_MOTION":15.08837092,"ECCENTRICITY":0.00012651,"INCLINATION":53.2167,"RA_OF_ASC_NODE":115.65,"ARG_OF_PERICENTER":97.2687,"MEAN_ANOMALY":262.8449,"EPHEMERIS_TYPE":0,"CLASSIFICATION_TYPE":"U","NORAD_CAT_ID":53421,"ELEMENT_SET_NO":999,"REV_AT_EPOCH":19857,"BSTAR":3.489098e-6,"MEAN_MOTION_DOT":-2.32e-6,"MEAN_MOTION_DDOT":0},{"OBJECT_NAME":"KUIPER-00148","OBJECT_ID":"2025-217H","EPOCH":"2026-03-09T06:36:19.446048","MEAN_MOTION":15.09536529,"ECCENTRICITY":0.00081087,"INCLINATION":51.8794,"RA_OF_ASC_NODE":26.5769,"ARG_OF_PERICENTER":351.8096,"MEAN_ANOMALY":8.2745,"EPHEMERIS_TYPE":0,"CLASSIFICATION_TYPE":"U","NORAD_CAT_ID":65769,"ELEMENT_SET_NO":999,"REV_AT_EPOCH":2507,"BSTAR":0.00098730243,"MEAN_MOTION_DOT":0.00015783,"MEAN_MOTION_DDOT":0}]
