STARLINK-4545           
1 53421U 22097AK  26068.34899700 -.00000232  00000+0  34891-5 0  9994
2 53421  53.2167 115.6500 0001265  97.2687 262.8449 15.08837092198570
KUIPER-00148            
1 65769U 25217H   26068.27522507  .00015783  00000+0  98730-3 0  9995
2 65769  51.8794  26.5769 0008108 351.8096   8.2745 15.09536529 25078
